RASSVET-3 13            
1 68372U 26061N   26090.65647177  .00065502  34232-6  22640-3 0  9996
2 68372  82.2970  99.7100 0026313  44.3305 316.0066 15.88751202  1266
RASSVET-3 15            
1 68374U 26061Q   26090.65615486  .00065252  33249-6  22471-3 0  9997
2 68374  82.2970  99.7096 0026060  44.1575 316.1770 15.88835235  1260
RASSVET-3 16            
1 68375U 26061R   26090.65551310  .00115755  35198-5  39091-3 0  9997
2 68375  82.2966  99.7084 0025462  44.5811 315.7502 15.89296702  1264
SUPERVIEW NEO-2 OBJECT A
1 68377U 26062A   26091.70900649  .00003366  00000+0  15671-3 0  9990
2 68377  97.4360 100.0994 0006349 241.3780 118.6818 15.20596130  1031
SUPERVIEW NEO-2 OBJECT B
1 68378U 26062B   26090.72162118  .00004270  00000+0  19791-3 0  9995
2 68378  97.4347  99.1253 0008952 250.4427 109.5842 15.20585060   882
CZ-2D R/B               
1 68379U 26062C   26091.85829043  .00011060  00000+0  35453-3 0  9996
2 68379  97.4979 100.2089 0053072  37.6660 322.8278 15.31132632  1061
SHIYAN-33               
1 68405U 26064A   26091.73634785  .00006184  00000+0  26401-3 0  9996
2 68405  97.4661 167.6574 0013465 209.3706 150.6775 15.23177498   851
LPNTSAT-001 (IOD-1)     
1 68408U 26065A   26091.17010600  .00004750  00000+0  23469-3 0  9990
2 68408  97.4137 333.2788 0015408 273.4606  86.4866 15.18233471   574
LPNTSAT-002 (IOD-2)     
1 68409U 26065B   26089.91793646  .00001661  00000+0  84452-4 0  9996
2 68409  97.4122 332.0512 0012511 274.1697  85.8107 15.18186279   362
ELECTRON R/B            
1 68410U 26065C   26088.74355105  .00479178  22642-5  25022-3 0  9993
2 68410  97.3942 331.0573 0228083 205.9229 153.0475 15.83047135   157
ELECTRON KICK STAGE R/B 
1 68411U 26065D   26089.70480097  .00204615  21541-5  32519-3 0  9998
2 68411  97.4169 332.0388 0204510  25.2779 335.8323 15.75328689   370
XINZHENGCHENG-01        
1 68412U 26066A   26090.86061244  .00027820  00000+0  49494-3 0  9990
2 68412  84.9606 276.9718 0206089 144.2419 217.2835 15.29824820   229
LIJIAN-2 R/B            
1 68413U 26066B   26090.76704925  .02524605 -11587-5  21175-3 0  9990
2 68413  84.7161 277.0200 0605231 206.6432 150.2503 15.04815352   201
SL-4 R/B                
1 68537U 26061S   26091.47005640  .00183726  10942-4  57404-3 0  9998
2 68537  82.3054  98.7857 0026417  37.7313 322.5805 15.90800342  1391
ARTEMIS 2               
1 68538U 26069A   26091.94677083  .00000000  00000+0  00000+0 0  9993
2 68538  28.5261   3.4072 1465270  67.9232  24.0215 13.36122280    08
